<?xml version="1.0" encoding="utf-8"?>
<gpx xmlns="http://www.topografix.com/GPX/1/1" version="1.1" creator="https://mapy.com/">
	<trk>
		<name>Výlet Pozice na mapě</name>
		<trkseg>
			<trkpt lat="49.832659" lon="13.583010">
				<ele>466.000000</ele>
				<time>2026-03-09T08:19:31Z</time>
			</trkpt>
			<trkpt lat="49.832555" lon="13.583055">
				<ele>467.000000</ele>
				<time>2026-03-09T08:19:41Z</time>
			</trkpt>
			<trkpt lat="49.832458" lon="13.583089">
				<ele>467.000000</ele>
				<time>2026-03-09T08:19:47Z</time>
			</trkpt>
			<trkpt lat="49.832365" lon="13.583134">
				<ele>467.000000</ele>
				<time>2026-03-09T08:19:54Z</time>
			</trkpt>
			<trkpt lat="49.832263" lon="13.583166">
				<ele>467.000000</ele>
				<time>2026-03-09T08:20:01Z</time>
			</trkpt>
			<trkpt lat="49.832162" lon="13.583203">
				<ele>467.000000</ele>
				<time>2026-03-09T08:20:08Z</time>
			</trkpt>
			<trkpt lat="49.832084" lon="13.583287">
				<ele>466.000000</ele>
				<time>2026-03-09T08:20:15Z</time>
			</trkpt>
			<trkpt lat="49.832046" lon="13.583433">
				<ele>466.000000</ele>
				<time>2026-03-09T08:20:22Z</time>
			</trkpt>
			<trkpt lat="49.832031" lon="13.583593">
				<ele>467.000000</ele>
				<time>2026-03-09T08:20:28Z</time>
			</trkpt>
			<trkpt lat="49.832000" lon="13.583732">
				<ele>468.000000</ele>
				<time>2026-03-09T08:20:34Z</time>
			</trkpt>
			<trkpt lat="49.831989" lon="13.583877">
				<ele>469.000000</ele>
				<time>2026-03-09T08:20:40Z</time>
			</trkpt>
			<trkpt lat="49.831977" lon="13.584026">
				<ele>469.000000</ele>
				<time>2026-03-09T08:20:46Z</time>
			</trkpt>
			<trkpt lat="49.831920" lon="13.584132">
				<ele>469.000000</ele>
				<time>2026-03-09T08:20:52Z</time>
			</trkpt>
			<trkpt lat="49.831823" lon="13.584128">
				<ele>470.000000</ele>
				<time>2026-03-09T08:20:58Z</time>
			</trkpt>
			<trkpt lat="49.831729" lon="13.584125">
				<ele>469.000000</ele>
				<time>2026-03-09T08:21:05Z</time>
			</trkpt>
			<trkpt lat="49.831631" lon="13.584128">
				<ele>470.000000</ele>
				<time>2026-03-09T08:21:12Z</time>
			</trkpt>
			<trkpt lat="49.831534" lon="13.584115">
				<ele>470.000000</ele>
				<time>2026-03-09T08:21:19Z</time>
			</trkpt>
			<trkpt lat="49.831436" lon="13.584109">
				<ele>470.000000</ele>
				<time>2026-03-09T08:21:27Z</time>
			</trkpt>
			<trkpt lat="49.831333" lon="13.584109">
				<ele>470.000000</ele>
				<time>2026-03-09T08:21:35Z</time>
			</trkpt>
			<trkpt lat="49.831249" lon="13.584050">
				<ele>469.000000</ele>
				<time>2026-03-09T08:21:43Z</time>
			</trkpt>
			<trkpt lat="49.831205" lon="13.583916">
				<ele>468.000000</ele>
				<time>2026-03-09T08:21:51Z</time>
			</trkpt>
			<trkpt lat="49.831176" lon="13.583765">
				<ele>468.000000</ele>
				<time>2026-03-09T08:21:59Z</time>
			</trkpt>
			<trkpt lat="49.831147" lon="13.583630">
				<ele>467.000000</ele>
				<time>2026-03-09T08:22:06Z</time>
			</trkpt>
			<trkpt lat="49.831108" lon="13.583496">
				<ele>466.000000</ele>
				<time>2026-03-09T08:22:15Z</time>
			</trkpt>
			<trkpt lat="49.831094" lon="13.583350">
				<ele>465.000000</ele>
				<time>2026-03-09T08:22:23Z</time>
			</trkpt>
			<trkpt lat="49.831165" lon="13.583263">
				<ele>465.000000</ele>
				<time>2026-03-09T08:22:30Z</time>
			</trkpt>
			<trkpt lat="49.831257" lon="13.583199">
				<ele>466.000000</ele>
				<time>2026-03-09T08:22:38Z</time>
			</trkpt>
			<trkpt lat="49.831342" lon="13.583136">
				<ele>465.000000</ele>
				<time>2026-03-09T08:22:45Z</time>
			</trkpt>
			<trkpt lat="49.831424" lon="13.583066">
				<ele>466.000000</ele>
				<time>2026-03-09T08:22:53Z</time>
			</trkpt>
			<trkpt lat="49.831511" lon="13.583027">
				<ele>466.000000</ele>
				<time>2026-03-09T08:23:00Z</time>
			</trkpt>
			<trkpt lat="49.831608" lon="13.582964">
				<ele>465.000000</ele>
				<time>2026-03-09T08:23:08Z</time>
			</trkpt>
			<trkpt lat="49.831696" lon="13.582912">
				<ele>465.000000</ele>
				<time>2026-03-09T08:23:15Z</time>
			</trkpt>
			<trkpt lat="49.831773" lon="13.582838">
				<ele>465.000000</ele>
				<time>2026-03-09T08:23:23Z</time>
			</trkpt>
			<trkpt lat="49.831865" lon="13.582760">
				<ele>464.000000</ele>
				<time>2026-03-09T08:23:31Z</time>
			</trkpt>
			<trkpt lat="49.831957" lon="13.582733">
				<ele>464.000000</ele>
				<time>2026-03-09T08:23:38Z</time>
			</trkpt>
			<trkpt lat="49.832061" lon="13.582704">
				<ele>465.000000</ele>
				<time>2026-03-09T08:23:46Z</time>
			</trkpt>
			<trkpt lat="49.832151" lon="13.582641">
				<ele>465.000000</ele>
				<time>2026-03-09T08:23:54Z</time>
			</trkpt>
			<trkpt lat="49.832232" lon="13.582564">
				<ele>465.000000</ele>
				<time>2026-03-09T08:24:01Z</time>
			</trkpt>
			<trkpt lat="49.832308" lon="13.582466">
				<ele>464.000000</ele>
				<time>2026-03-09T08:24:09Z</time>
			</trkpt>
			<trkpt lat="49.832388" lon="13.582395">
				<ele>464.000000</ele>
				<time>2026-03-09T08:24:17Z</time>
			</trkpt>
			<trkpt lat="49.832470" lon="13.582336">
				<ele>464.000000</ele>
				<time>2026-03-09T08:24:24Z</time>
			</trkpt>
			<trkpt lat="49.832485" lon="13.582186">
				<ele>464.000000</ele>
				<time>2026-03-09T08:24:33Z</time>
			</trkpt>
			<trkpt lat="49.832497" lon="13.582048">
				<ele>463.000000</ele>
				<time>2026-03-09T08:24:40Z</time>
			</trkpt>
			<trkpt lat="49.832482" lon="13.581899">
				<ele>462.000000</ele>
				<time>2026-03-09T08:24:47Z</time>
			</trkpt>
			<trkpt lat="49.832411" lon="13.581793">
				<ele>463.000000</ele>
				<time>2026-03-09T08:24:54Z</time>
			</trkpt>
			<trkpt lat="49.832321" lon="13.581748">
				<ele>462.000000</ele>
				<time>2026-03-09T08:25:01Z</time>
			</trkpt>
			<trkpt lat="49.832238" lon="13.581691">
				<ele>462.000000</ele>
				<time>2026-03-09T08:25:08Z</time>
			</trkpt>
			<trkpt lat="49.832151" lon="13.581596">
				<ele>461.000000</ele>
				<time>2026-03-09T08:25:15Z</time>
			</trkpt>
			<trkpt lat="49.832132" lon="13.581455">
				<ele>460.000000</ele>
				<time>2026-03-09T08:25:22Z</time>
			</trkpt>
			<trkpt lat="49.832235" lon="13.581473">
				<ele>460.000000</ele>
				<time>2026-03-09T08:25:30Z</time>
			</trkpt>
			<trkpt lat="49.832335" lon="13.581451">
				<ele>460.000000</ele>
				<time>2026-03-09T08:25:39Z</time>
			</trkpt>
			<trkpt lat="49.832281" lon="13.581316">
				<ele>460.000000</ele>
				<time>2026-03-09T08:25:49Z</time>
			</trkpt>
			<trkpt lat="49.832238" lon="13.581183">
				<ele>459.000000</ele>
				<time>2026-03-09T08:25:56Z</time>
			</trkpt>
			<trkpt lat="49.832289" lon="13.581065">
				<ele>459.000000</ele>
				<time>2026-03-09T08:26:04Z</time>
			</trkpt>
			<trkpt lat="49.832344" lon="13.580946">
				<ele>458.000000</ele>
				<time>2026-03-09T08:26:11Z</time>
			</trkpt>
			<trkpt lat="49.832385" lon="13.580815">
				<ele>457.000000</ele>
				<time>2026-03-09T08:26:19Z</time>
			</trkpt>
			<trkpt lat="49.832439" lon="13.580693">
				<ele>456.000000</ele>
				<time>2026-03-09T08:26:29Z</time>
			</trkpt>
			<trkpt lat="49.832512" lon="13.580592">
				<ele>456.000000</ele>
				<time>2026-03-09T08:26:36Z</time>
			</trkpt>
			<trkpt lat="49.832515" lon="13.580445">
				<ele>454.000000</ele>
				<time>2026-03-09T08:26:46Z</time>
			</trkpt>
			<trkpt lat="49.832440" lon="13.580541">
				<ele>453.000000</ele>
				<time>2026-03-09T08:26:57Z</time>
			</trkpt>
			<trkpt lat="49.832363" lon="13.580636">
				<ele>454.000000</ele>
				<time>2026-03-09T08:27:06Z</time>
			</trkpt>
			<trkpt lat="49.832266" lon="13.580621">
				<ele>453.000000</ele>
				<time>2026-03-09T08:27:16Z</time>
			</trkpt>
			<trkpt lat="49.832177" lon="13.580593">
				<ele>450.000000</ele>
				<time>2026-03-09T08:27:26Z</time>
			</trkpt>
			<trkpt lat="49.832085" lon="13.580557">
				<ele>448.000000</ele>
				<time>2026-03-09T08:27:38Z</time>
			</trkpt>
			<trkpt lat="49.831988" lon="13.580585">
				<ele>447.000000</ele>
				<time>2026-03-09T08:27:51Z</time>
			</trkpt>
			<trkpt lat="49.831935" lon="13.580465">
				<ele>444.000000</ele>
				<time>2026-03-09T08:28:06Z</time>
			</trkpt>
			<trkpt lat="49.831888" lon="13.580337">
				<ele>442.000000</ele>
				<time>2026-03-09T08:28:17Z</time>
			</trkpt>
			<trkpt lat="49.831795" lon="13.580267">
				<ele>440.000000</ele>
				<time>2026-03-09T08:28:30Z</time>
			</trkpt>
			<trkpt lat="49.831702" lon="13.580251">
				<ele>438.000000</ele>
				<time>2026-03-09T08:28:41Z</time>
			</trkpt>
			<trkpt lat="49.831621" lon="13.580339">
				<ele>439.000000</ele>
				<time>2026-03-09T08:28:51Z</time>
			</trkpt>
			<trkpt lat="49.831564" lon="13.580464">
				<ele>440.000000</ele>
				<time>2026-03-09T08:29:01Z</time>
			</trkpt>
			<trkpt lat="49.831474" lon="13.580524">
				<ele>440.000000</ele>
				<time>2026-03-09T08:29:07Z</time>
			</trkpt>
			<trkpt lat="49.831374" lon="13.580561">
				<ele>440.000000</ele>
				<time>2026-03-09T08:29:13Z</time>
			</trkpt>
			<trkpt lat="49.831305" lon="13.580653">
				<ele>440.000000</ele>
				<time>2026-03-09T08:29:23Z</time>
			</trkpt>
			<trkpt lat="49.831265" lon="13.580806">
				<ele>442.000000</ele>
				<time>2026-03-09T08:29:38Z</time>
			</trkpt>
			<trkpt lat="49.831215" lon="13.580923">
				<ele>442.000000</ele>
				<time>2026-03-09T08:29:49Z</time>
			</trkpt>
			<trkpt lat="49.831339" lon="13.581029">
				<ele>444.000000</ele>
				<time>2026-03-09T08:30:17Z</time>
			</trkpt>
			<trkpt lat="49.831376" lon="13.581163">
				<ele>446.000000</ele>
				<time>2026-03-09T08:30:25Z</time>
			</trkpt>
			<trkpt lat="49.831339" lon="13.581292">
				<ele>449.000000</ele>
				<time>2026-03-09T08:30:36Z</time>
			</trkpt>
			<trkpt lat="49.831254" lon="13.581357">
				<ele>449.000000</ele>
				<time>2026-03-09T08:30:45Z</time>
			</trkpt>
			<trkpt lat="49.831183" lon="13.581447">
				<ele>450.000000</ele>
				<time>2026-03-09T08:30:54Z</time>
			</trkpt>
			<trkpt lat="49.831128" lon="13.581565">
				<ele>451.000000</ele>
				<time>2026-03-09T08:31:03Z</time>
			</trkpt>
			<trkpt lat="49.831157" lon="13.581698">
				<ele>454.000000</ele>
				<time>2026-03-09T08:31:20Z</time>
			</trkpt>
			<trkpt lat="49.831150" lon="13.581848">
				<ele>456.000000</ele>
				<time>2026-03-09T08:31:34Z</time>
			</trkpt>
			<trkpt lat="49.831179" lon="13.581989">
				<ele>459.000000</ele>
				<time>2026-03-09T08:31:49Z</time>
			</trkpt>
			<trkpt lat="49.830931" lon="13.580718">
				<ele>440.000000</ele>
				<time>2026-03-09T08:34:41Z</time>
			</trkpt>
			<trkpt lat="49.830369" lon="13.580310">
				<ele>441.000000</ele>
				<time>2026-03-09T08:35:27Z</time>
			</trkpt>
			<trkpt lat="49.830296" lon="13.580203">
				<ele>442.000000</ele>
				<time>2026-03-09T08:35:34Z</time>
			</trkpt>
			<trkpt lat="49.830257" lon="13.580073">
				<ele>443.000000</ele>
				<time>2026-03-09T08:35:41Z</time>
			</trkpt>
			<trkpt lat="49.830180" lon="13.579987">
				<ele>441.000000</ele>
				<time>2026-03-09T08:35:49Z</time>
			</trkpt>
			<trkpt lat="49.830088" lon="13.579909">
				<ele>441.000000</ele>
				<time>2026-03-09T08:35:57Z</time>
			</trkpt>
			<trkpt lat="49.830010" lon="13.579814">
				<ele>441.000000</ele>
				<time>2026-03-09T08:36:04Z</time>
			</trkpt>
			<trkpt lat="49.829937" lon="13.579713">
				<ele>441.000000</ele>
				<time>2026-03-09T08:36:12Z</time>
			</trkpt>
			<trkpt lat="49.829842" lon="13.579693">
				<ele>439.000000</ele>
				<time>2026-03-09T08:36:20Z</time>
			</trkpt>
			<trkpt lat="49.829760" lon="13.579599">
				<ele>439.000000</ele>
				<time>2026-03-09T08:36:27Z</time>
			</trkpt>
			<trkpt lat="49.829722" lon="13.579457">
				<ele>441.000000</ele>
				<time>2026-03-09T08:36:34Z</time>
			</trkpt>
			<trkpt lat="49.829624" lon="13.579427">
				<ele>439.000000</ele>
				<time>2026-03-09T08:36:43Z</time>
			</trkpt>
			<trkpt lat="49.829547" lon="13.579331">
				<ele>439.000000</ele>
				<time>2026-03-09T08:36:49Z</time>
			</trkpt>
			<trkpt lat="49.829488" lon="13.579209">
				<ele>439.000000</ele>
				<time>2026-03-09T08:36:57Z</time>
			</trkpt>
			<trkpt lat="49.829417" lon="13.579087">
				<ele>439.000000</ele>
				<time>2026-03-09T08:37:03Z</time>
			</trkpt>
			<trkpt lat="49.829363" lon="13.578969">
				<ele>440.000000</ele>
				<time>2026-03-09T08:37:09Z</time>
			</trkpt>
			<trkpt lat="49.829304" lon="13.578848">
				<ele>440.000000</ele>
				<time>2026-03-09T08:37:16Z</time>
			</trkpt>
			<trkpt lat="49.829219" lon="13.578907">
				<ele>439.000000</ele>
				<time>2026-03-09T08:37:24Z</time>
			</trkpt>
			<trkpt lat="49.829142" lon="13.578994">
				<ele>439.000000</ele>
				<time>2026-03-09T08:37:31Z</time>
			</trkpt>
			<trkpt lat="49.829122" lon="13.579131">
				<ele>439.000000</ele>
				<time>2026-03-09T08:37:38Z</time>
			</trkpt>
			<trkpt lat="49.829167" lon="13.579260">
				<ele>439.000000</ele>
				<time>2026-03-09T08:37:45Z</time>
			</trkpt>
			<trkpt lat="49.829221" lon="13.579395">
				<ele>438.000000</ele>
				<time>2026-03-09T08:37:53Z</time>
			</trkpt>
			<trkpt lat="49.829278" lon="13.579515">
				<ele>439.000000</ele>
				<time>2026-03-09T08:38:04Z</time>
			</trkpt>
			<trkpt lat="49.829338" lon="13.579637">
				<ele>440.000000</ele>
				<time>2026-03-09T08:38:14Z</time>
			</trkpt>
			<trkpt lat="49.829362" lon="13.579776">
				<ele>440.000000</ele>
				<time>2026-03-09T08:38:22Z</time>
			</trkpt>
			<trkpt lat="49.829411" lon="13.579897">
				<ele>443.000000</ele>
				<time>2026-03-09T08:38:31Z</time>
			</trkpt>
			<trkpt lat="49.829450" lon="13.580043">
				<ele>445.000000</ele>
				<time>2026-03-09T08:38:39Z</time>
			</trkpt>
			<trkpt lat="49.829384" lon="13.580162">
				<ele>446.000000</ele>
				<time>2026-03-09T08:38:48Z</time>
			</trkpt>
			<trkpt lat="49.829382" lon="13.580313">
				<ele>447.000000</ele>
				<time>2026-03-09T08:38:55Z</time>
			</trkpt>
			<trkpt lat="49.829391" lon="13.580459">
				<ele>448.000000</ele>
				<time>2026-03-09T08:39:02Z</time>
			</trkpt>
			<trkpt lat="49.829396" lon="13.580598">
				<ele>449.000000</ele>
				<time>2026-03-09T08:39:09Z</time>
			</trkpt>
			<trkpt lat="49.829418" lon="13.580738">
				<ele>451.000000</ele>
				<time>2026-03-09T08:39:16Z</time>
			</trkpt>
			<trkpt lat="49.829313" lon="13.580710">
				<ele>449.000000</ele>
				<time>2026-03-09T08:39:32Z</time>
			</trkpt>
			<trkpt lat="49.829267" lon="13.580832">
				<ele>448.000000</ele>
				<time>2026-03-09T08:39:39Z</time>
			</trkpt>
			<trkpt lat="49.829191" lon="13.580907">
				<ele>449.000000</ele>
				<time>2026-03-09T08:39:45Z</time>
			</trkpt>
			<trkpt lat="49.829132" lon="13.580790">
				<ele>448.000000</ele>
				<time>2026-03-09T08:39:56Z</time>
			</trkpt>
			<trkpt lat="49.829036" lon="13.580751">
				<ele>445.000000</ele>
				<time>2026-03-09T08:40:13Z</time>
			</trkpt>
			<trkpt lat="49.828991" lon="13.580625">
				<ele>443.000000</ele>
				<time>2026-03-09T08:40:21Z</time>
			</trkpt>
			<trkpt lat="49.828902" lon="13.580551">
				<ele>441.000000</ele>
				<time>2026-03-09T08:40:28Z</time>
			</trkpt>
			<trkpt lat="49.828812" lon="13.580539">
				<ele>440.000000</ele>
				<time>2026-03-09T08:40:34Z</time>
			</trkpt>
			<trkpt lat="49.828740" lon="13.580633">
				<ele>440.000000</ele>
				<time>2026-03-09T08:40:41Z</time>
			</trkpt>
			<trkpt lat="49.828650" lon="13.580661">
				<ele>441.000000</ele>
				<time>2026-03-09T08:40:48Z</time>
			</trkpt>
			<trkpt lat="49.828595" lon="13.580778">
				<ele>439.000000</ele>
				<time>2026-03-09T08:40:58Z</time>
			</trkpt>
			<trkpt lat="49.828704" lon="13.580754">
				<ele>436.000000</ele>
				<time>2026-03-09T08:41:09Z</time>
			</trkpt>
			<trkpt lat="49.828801" lon="13.580778">
				<ele>439.000000</ele>
				<time>2026-03-09T08:41:15Z</time>
			</trkpt>
			<trkpt lat="49.828896" lon="13.580798">
				<ele>440.000000</ele>
				<time>2026-03-09T08:41:22Z</time>
			</trkpt>
			<trkpt lat="49.828975" lon="13.580889">
				<ele>442.000000</ele>
				<time>2026-03-09T08:41:30Z</time>
			</trkpt>
			<trkpt lat="49.828986" lon="13.581031">
				<ele>443.000000</ele>
				<time>2026-03-09T08:41:37Z</time>
			</trkpt>
			<trkpt lat="49.828986" lon="13.581176">
				<ele>444.000000</ele>
				<time>2026-03-09T08:41:43Z</time>
			</trkpt>
			<trkpt lat="49.828987" lon="13.581318">
				<ele>445.000000</ele>
				<time>2026-03-09T08:41:49Z</time>
			</trkpt>
			<trkpt lat="49.828966" lon="13.581487">
				<ele>446.000000</ele>
				<time>2026-03-09T08:41:56Z</time>
			</trkpt>
			<trkpt lat="49.828942" lon="13.581638">
				<ele>448.000000</ele>
				<time>2026-03-09T08:42:02Z</time>
			</trkpt>
			<trkpt lat="49.828863" lon="13.581748">
				<ele>449.000000</ele>
				<time>2026-03-09T08:42:08Z</time>
			</trkpt>
			<trkpt lat="49.828796" lon="13.581851">
				<ele>449.000000</ele>
				<time>2026-03-09T08:42:13Z</time>
			</trkpt>
			<trkpt lat="49.828710" lon="13.581943">
				<ele>450.000000</ele>
				<time>2026-03-09T08:42:19Z</time>
			</trkpt>
			<trkpt lat="49.828625" lon="13.582044">
				<ele>450.000000</ele>
				<time>2026-03-09T08:42:25Z</time>
			</trkpt>
			<trkpt lat="49.828537" lon="13.582131">
				<ele>450.000000</ele>
				<time>2026-03-09T08:42:31Z</time>
			</trkpt>
			<trkpt lat="49.828454" lon="13.582187">
				<ele>449.000000</ele>
				<time>2026-03-09T08:42:38Z</time>
			</trkpt>
			<trkpt lat="49.828368" lon="13.582265">
				<ele>449.000000</ele>
				<time>2026-03-09T08:42:45Z</time>
			</trkpt>
			<trkpt lat="49.828295" lon="13.582368">
				<ele>450.000000</ele>
				<time>2026-03-09T08:42:52Z</time>
			</trkpt>
			<trkpt lat="49.828275" lon="13.582529">
				<ele>450.000000</ele>
				<time>2026-03-09T08:43:00Z</time>
			</trkpt>
			<trkpt lat="49.828252" lon="13.582666">
				<ele>452.000000</ele>
				<time>2026-03-09T08:43:07Z</time>
			</trkpt>
			<trkpt lat="49.828201" lon="13.582799">
				<ele>454.000000</ele>
				<time>2026-03-09T08:43:14Z</time>
			</trkpt>
			<trkpt lat="49.828099" lon="13.582833">
				<ele>454.000000</ele>
				<time>2026-03-09T08:43:22Z</time>
			</trkpt>
			<trkpt lat="49.828000" lon="13.582786">
				<ele>453.000000</ele>
				<time>2026-03-09T08:43:40Z</time>
			</trkpt>
			<trkpt lat="49.827907" lon="13.582755">
				<ele>453.000000</ele>
				<time>2026-03-09T08:43:47Z</time>
			</trkpt>
			<trkpt lat="49.827824" lon="13.582677">
				<ele>453.000000</ele>
				<time>2026-03-09T08:43:55Z</time>
			</trkpt>
			<trkpt lat="49.827790" lon="13.582535">
				<ele>450.000000</ele>
				<time>2026-03-09T08:44:02Z</time>
			</trkpt>
			<trkpt lat="49.827711" lon="13.582453">
				<ele>452.000000</ele>
				<time>2026-03-09T08:44:09Z</time>
			</trkpt>
			<trkpt lat="49.827615" lon="13.582409">
				<ele>451.000000</ele>
				<time>2026-03-09T08:44:16Z</time>
			</trkpt>
			<trkpt lat="49.827538" lon="13.582328">
				<ele>451.000000</ele>
				<time>2026-03-09T08:44:22Z</time>
			</trkpt>
			<trkpt lat="49.827499" lon="13.582195">
				<ele>452.000000</ele>
				<time>2026-03-09T08:44:30Z</time>
			</trkpt>
			<trkpt lat="49.827589" lon="13.582197">
				<ele>449.000000</ele>
				<time>2026-03-09T08:44:44Z</time>
			</trkpt>
			<trkpt lat="49.827656" lon="13.582311">
				<ele>449.000000</ele>
				<time>2026-03-09T08:44:52Z</time>
			</trkpt>
			<trkpt lat="49.827734" lon="13.582417">
				<ele>450.000000</ele>
				<time>2026-03-09T08:44:59Z</time>
			</trkpt>
			<trkpt lat="49.827825" lon="13.582512">
				<ele>451.000000</ele>
				<time>2026-03-09T08:45:06Z</time>
			</trkpt>
			<trkpt lat="49.827913" lon="13.582588">
				<ele>451.000000</ele>
				<time>2026-03-09T08:45:11Z</time>
			</trkpt>
			<trkpt lat="49.828000" lon="13.582662">
				<ele>450.000000</ele>
				<time>2026-03-09T08:45:18Z</time>
			</trkpt>
			<trkpt lat="49.828085" lon="13.582719">
				<ele>452.000000</ele>
				<time>2026-03-09T08:45:25Z</time>
			</trkpt>
			<trkpt lat="49.828107" lon="13.582575">
				<ele>452.000000</ele>
				<time>2026-03-09T08:45:34Z</time>
			</trkpt>
			<trkpt lat="49.828025" lon="13.582504">
				<ele>451.000000</ele>
				<time>2026-03-09T08:45:40Z</time>
			</trkpt>
			<trkpt lat="49.828063" lon="13.582363">
				<ele>449.000000</ele>
				<time>2026-03-09T08:45:53Z</time>
			</trkpt>
			<trkpt lat="49.828147" lon="13.582309">
				<ele>449.000000</ele>
				<time>2026-03-09T08:46:00Z</time>
			</trkpt>
			<trkpt lat="49.828232" lon="13.582229">
				<ele>448.000000</ele>
				<time>2026-03-09T08:46:08Z</time>
			</trkpt>
			<trkpt lat="49.828295" lon="13.582124">
				<ele>447.000000</ele>
				<time>2026-03-09T08:46:16Z</time>
			</trkpt>
			<trkpt lat="49.828351" lon="13.582005">
				<ele>446.000000</ele>
				<time>2026-03-09T08:46:26Z</time>
			</trkpt>
			<trkpt lat="49.828421" lon="13.581902">
				<ele>446.000000</ele>
				<time>2026-03-09T08:46:34Z</time>
			</trkpt>
			<trkpt lat="49.828490" lon="13.581797">
				<ele>447.000000</ele>
				<time>2026-03-09T08:46:42Z</time>
			</trkpt>
			<trkpt lat="49.828584" lon="13.581773">
				<ele>447.000000</ele>
				<time>2026-03-09T08:46:51Z</time>
			</trkpt>
			<trkpt lat="49.828570" lon="13.581624">
				<ele>444.000000</ele>
				<time>2026-03-09T08:47:11Z</time>
			</trkpt>
			<trkpt lat="49.828552" lon="13.581485">
				<ele>443.000000</ele>
				<time>2026-03-09T08:47:18Z</time>
			</trkpt>
			<trkpt lat="49.828592" lon="13.581357">
				<ele>443.000000</ele>
				<time>2026-03-09T08:47:26Z</time>
			</trkpt>
			<trkpt lat="49.828638" lon="13.581237">
				<ele>443.000000</ele>
				<time>2026-03-09T08:47:36Z</time>
			</trkpt>
			<trkpt lat="49.828692" lon="13.581120">
				<ele>441.000000</ele>
				<time>2026-03-09T08:47:45Z</time>
			</trkpt>
			<trkpt lat="49.828765" lon="13.581027">
				<ele>442.000000</ele>
				<time>2026-03-09T08:47:54Z</time>
			</trkpt>
			<trkpt lat="49.828824" lon="13.580919">
				<ele>442.000000</ele>
				<time>2026-03-09T08:48:03Z</time>
			</trkpt>
			<trkpt lat="49.828921" lon="13.580929">
				<ele>442.000000</ele>
				<time>2026-03-09T08:48:11Z</time>
			</trkpt>
			<trkpt lat="49.828827" lon="13.580911">
				<ele>440.000000</ele>
				<time>2026-03-09T08:48:25Z</time>
			</trkpt>
			<trkpt lat="49.828750" lon="13.581003">
				<ele>440.000000</ele>
				<time>2026-03-09T08:48:33Z</time>
			</trkpt>
			<trkpt lat="49.828690" lon="13.581117">
				<ele>441.000000</ele>
				<time>2026-03-09T08:48:40Z</time>
			</trkpt>
			<trkpt lat="49.828629" lon="13.581221">
				<ele>441.000000</ele>
				<time>2026-03-09T08:48:47Z</time>
			</trkpt>
			<trkpt lat="49.828562" lon="13.581127">
				<ele>441.000000</ele>
				<time>2026-03-09T08:48:56Z</time>
			</trkpt>
			<trkpt lat="49.828567" lon="13.580976">
				<ele>441.000000</ele>
				<time>2026-03-09T08:49:05Z</time>
			</trkpt>
			<trkpt lat="49.828554" lon="13.580833">
				<ele>440.000000</ele>
				<time>2026-03-09T08:49:14Z</time>
			</trkpt>
			<trkpt lat="49.828492" lon="13.580731">
				<ele>440.000000</ele>
				<time>2026-03-09T08:49:22Z</time>
			</trkpt>
			<trkpt lat="49.828399" lon="13.580756">
				<ele>437.000000</ele>
				<time>2026-03-09T08:49:31Z</time>
			</trkpt>
			<trkpt lat="49.828309" lon="13.580793">
				<ele>438.000000</ele>
				<time>2026-03-09T08:49:37Z</time>
			</trkpt>
			<trkpt lat="49.828219" lon="13.580846">
				<ele>442.000000</ele>
				<time>2026-03-09T08:49:43Z</time>
			</trkpt>
			<trkpt lat="49.828147" lon="13.580952">
				<ele>444.000000</ele>
				<time>2026-03-09T08:49:53Z</time>
			</trkpt>
			<trkpt lat="49.828149" lon="13.581107">
				<ele>444.000000</ele>
				<time>2026-03-09T08:50:01Z</time>
			</trkpt>
			<trkpt lat="49.828185" lon="13.581242">
				<ele>444.000000</ele>
				<time>2026-03-09T08:50:09Z</time>
			</trkpt>
			<trkpt lat="49.828252" lon="13.581340">
				<ele>443.000000</ele>
				<time>2026-03-09T08:50:16Z</time>
			</trkpt>
			<trkpt lat="49.828238" lon="13.581493">
				<ele>443.000000</ele>
				<time>2026-03-09T08:50:27Z</time>
			</trkpt>
			<trkpt lat="49.828153" lon="13.581564">
				<ele>444.000000</ele>
				<time>2026-03-09T08:50:34Z</time>
			</trkpt>
			<trkpt lat="49.828068" lon="13.581628">
				<ele>444.000000</ele>
				<time>2026-03-09T08:50:40Z</time>
			</trkpt>
			<trkpt lat="49.827973" lon="13.581630">
				<ele>445.000000</ele>
				<time>2026-03-09T08:50:48Z</time>
			</trkpt>
			<trkpt lat="49.827901" lon="13.581540">
				<ele>446.000000</ele>
				<time>2026-03-09T08:50:57Z</time>
			</trkpt>
			<trkpt lat="49.827802" lon="13.581522">
				<ele>446.000000</ele>
				<time>2026-03-09T08:51:04Z</time>
			</trkpt>
			<trkpt lat="49.827711" lon="13.581522">
				<ele>446.000000</ele>
				<time>2026-03-09T08:51:10Z</time>
			</trkpt>
			<trkpt lat="49.827619" lon="13.581560">
				<ele>447.000000</ele>
				<time>2026-03-09T08:51:15Z</time>
			</trkpt>
			<trkpt lat="49.827517" lon="13.581597">
				<ele>447.000000</ele>
				<time>2026-03-09T08:51:21Z</time>
			</trkpt>
			<trkpt lat="49.827412" lon="13.581573">
				<ele>449.000000</ele>
				<time>2026-03-09T08:51:27Z</time>
			</trkpt>
			<trkpt lat="49.827327" lon="13.581474">
				<ele>448.000000</ele>
				<time>2026-03-09T08:51:33Z</time>
			</trkpt>
			<trkpt lat="49.827290" lon="13.581325">
				<ele>448.000000</ele>
				<time>2026-03-09T08:51:39Z</time>
			</trkpt>
			<trkpt lat="49.827322" lon="13.581176">
				<ele>448.000000</ele>
				<time>2026-03-09T08:51:45Z</time>
			</trkpt>
			<trkpt lat="49.827391" lon="13.581068">
				<ele>448.000000</ele>
				<time>2026-03-09T08:51:51Z</time>
			</trkpt>
			<trkpt lat="49.827476" lon="13.581002">
				<ele>447.000000</ele>
				<time>2026-03-09T08:51:57Z</time>
			</trkpt>
			<trkpt lat="49.827564" lon="13.580950">
				<ele>447.000000</ele>
				<time>2026-03-09T08:52:03Z</time>
			</trkpt>
			<trkpt lat="49.827663" lon="13.580936">
				<ele>447.000000</ele>
				<time>2026-03-09T08:52:09Z</time>
			</trkpt>
			<trkpt lat="49.827762" lon="13.580913">
				<ele>447.000000</ele>
				<time>2026-03-09T08:52:15Z</time>
			</trkpt>
			<trkpt lat="49.827862" lon="13.580899">
				<ele>446.000000</ele>
				<time>2026-03-09T08:52:21Z</time>
			</trkpt>
			<trkpt lat="49.827959" lon="13.580887">
				<ele>447.000000</ele>
				<time>2026-03-09T08:52:27Z</time>
			</trkpt>
			<trkpt lat="49.828051" lon="13.580892">
				<ele>444.000000</ele>
				<time>2026-03-09T08:52:33Z</time>
			</trkpt>
			<trkpt lat="49.828136" lon="13.580803">
				<ele>443.000000</ele>
				<time>2026-03-09T08:52:40Z</time>
			</trkpt>
			<trkpt lat="49.828195" lon="13.580671">
				<ele>443.000000</ele>
				<time>2026-03-09T08:52:46Z</time>
			</trkpt>
			<trkpt lat="49.828274" lon="13.580586">
				<ele>442.000000</ele>
				<time>2026-03-09T08:52:52Z</time>
			</trkpt>
			<trkpt lat="49.828358" lon="13.580507">
				<ele>441.000000</ele>
				<time>2026-03-09T08:52:58Z</time>
			</trkpt>
			<trkpt lat="49.828436" lon="13.580424">
				<ele>440.000000</ele>
				<time>2026-03-09T08:53:04Z</time>
			</trkpt>
			<trkpt lat="49.828488" lon="13.580310">
				<ele>443.000000</ele>
				<time>2026-03-09T08:53:10Z</time>
			</trkpt>
			<trkpt lat="49.828507" lon="13.580165">
				<ele>442.000000</ele>
				<time>2026-03-09T08:53:16Z</time>
			</trkpt>
			<trkpt lat="49.828589" lon="13.580085">
				<ele>440.000000</ele>
				<time>2026-03-09T08:53:26Z</time>
			</trkpt>
			<trkpt lat="49.828679" lon="13.580081">
				<ele>439.000000</ele>
				<time>2026-03-09T08:53:32Z</time>
			</trkpt>
			<trkpt lat="49.828778" lon="13.580144">
				<ele>439.000000</ele>
				<time>2026-03-09T08:53:41Z</time>
			</trkpt>
			<trkpt lat="49.828854" lon="13.580246">
				<ele>439.000000</ele>
				<time>2026-03-09T08:53:47Z</time>
			</trkpt>
			<trkpt lat="49.828946" lon="13.580321">
				<ele>441.000000</ele>
				<time>2026-03-09T08:53:54Z</time>
			</trkpt>
			<trkpt lat="49.829035" lon="13.580350">
				<ele>443.000000</ele>
				<time>2026-03-09T08:54:01Z</time>
			</trkpt>
			<trkpt lat="49.829136" lon="13.580351">
				<ele>444.000000</ele>
				<time>2026-03-09T08:54:08Z</time>
			</trkpt>
			<trkpt lat="49.829217" lon="13.580272">
				<ele>445.000000</ele>
				<time>2026-03-09T08:54:15Z</time>
			</trkpt>
			<trkpt lat="49.829269" lon="13.580132">
				<ele>445.000000</ele>
				<time>2026-03-09T08:54:23Z</time>
			</trkpt>
			<trkpt lat="49.829239" lon="13.579993">
				<ele>442.000000</ele>
				<time>2026-03-09T08:54:32Z</time>
			</trkpt>
			<trkpt lat="49.829180" lon="13.579882">
				<ele>441.000000</ele>
				<time>2026-03-09T08:54:40Z</time>
			</trkpt>
			<trkpt lat="49.829116" lon="13.579779">
				<ele>438.000000</ele>
				<time>2026-03-09T08:54:49Z</time>
			</trkpt>
			<trkpt lat="49.829075" lon="13.579609">
				<ele>436.000000</ele>
				<time>2026-03-09T08:54:54Z</time>
			</trkpt>
			<trkpt lat="49.829117" lon="13.579470">
				<ele>438.000000</ele>
				<time>2026-03-09T08:55:00Z</time>
			</trkpt>
			<trkpt lat="49.828987" lon="13.579521">
				<ele>436.000000</ele>
				<time>2026-03-09T08:55:18Z</time>
			</trkpt>
			<trkpt lat="49.828893" lon="13.579574">
				<ele>436.000000</ele>
				<time>2026-03-09T08:55:25Z</time>
			</trkpt>
			<trkpt lat="49.828826" lon="13.579470">
				<ele>437.000000</ele>
				<time>2026-03-09T08:55:32Z</time>
			</trkpt>
			<trkpt lat="49.828780" lon="13.579322">
				<ele>438.000000</ele>
				<time>2026-03-09T08:55:38Z</time>
			</trkpt>
			<trkpt lat="49.828790" lon="13.579165">
				<ele>439.000000</ele>
				<time>2026-03-09T08:55:44Z</time>
			</trkpt>
			<trkpt lat="49.828772" lon="13.579026">
				<ele>440.000000</ele>
				<time>2026-03-09T08:55:50Z</time>
			</trkpt>
			<trkpt lat="49.828710" lon="13.578887">
				<ele>442.000000</ele>
				<time>2026-03-09T08:55:57Z</time>
			</trkpt>
			<trkpt lat="49.828674" lon="13.578739">
				<ele>444.000000</ele>
				<time>2026-03-09T08:56:04Z</time>
			</trkpt>
			<trkpt lat="49.828703" lon="13.578587">
				<ele>444.000000</ele>
				<time>2026-03-09T08:56:11Z</time>
			</trkpt>
			<trkpt lat="49.828668" lon="13.578450">
				<ele>445.000000</ele>
				<time>2026-03-09T08:56:19Z</time>
			</trkpt>
			<trkpt lat="49.828615" lon="13.578312">
				<ele>445.000000</ele>
				<time>2026-03-09T08:56:28Z</time>
			</trkpt>
			<trkpt lat="49.828671" lon="13.578178">
				<ele>446.000000</ele>
				<time>2026-03-09T08:56:40Z</time>
			</trkpt>
			<trkpt lat="49.828666" lon="13.578038">
				<ele>448.000000</ele>
				<time>2026-03-09T08:56:51Z</time>
			</trkpt>
			<trkpt lat="49.828744" lon="13.577931">
				<ele>447.000000</ele>
				<time>2026-03-09T08:57:00Z</time>
			</trkpt>
			<trkpt lat="49.828851" lon="13.577920">
				<ele>446.000000</ele>
				<time>2026-03-09T08:57:09Z</time>
			</trkpt>
			<trkpt lat="49.828943" lon="13.577887">
				<ele>446.000000</ele>
				<time>2026-03-09T08:57:16Z</time>
			</trkpt>
			<trkpt lat="49.829041" lon="13.577880">
				<ele>446.000000</ele>
				<time>2026-03-09T08:57:23Z</time>
			</trkpt>
			<trkpt lat="49.829136" lon="13.577882">
				<ele>446.000000</ele>
				<time>2026-03-09T08:57:30Z</time>
			</trkpt>
			<trkpt lat="49.829223" lon="13.577963">
				<ele>445.000000</ele>
				<time>2026-03-09T08:57:38Z</time>
			</trkpt>
			<trkpt lat="49.829185" lon="13.578097">
				<ele>446.000000</ele>
				<time>2026-03-09T08:57:51Z</time>
			</trkpt>
			<trkpt lat="49.829157" lon="13.578238">
				<ele>446.000000</ele>
				<time>2026-03-09T08:58:01Z</time>
			</trkpt>
			<trkpt lat="49.829103" lon="13.578383">
				<ele>442.000000</ele>
				<time>2026-03-09T08:58:13Z</time>
			</trkpt>
			<trkpt lat="49.829038" lon="13.578490">
				<ele>444.000000</ele>
				<time>2026-03-09T08:58:20Z</time>
			</trkpt>
			<trkpt lat="49.828971" lon="13.578592">
				<ele>444.000000</ele>
				<time>2026-03-09T08:58:25Z</time>
			</trkpt>
			<trkpt lat="49.828947" lon="13.578734">
				<ele>444.000000</ele>
				<time>2026-03-09T08:58:32Z</time>
			</trkpt>
			<trkpt lat="49.829038" lon="13.578741">
				<ele>442.000000</ele>
				<time>2026-03-09T08:58:44Z</time>
			</trkpt>
			<trkpt lat="49.829127" lon="13.578703">
				<ele>443.000000</ele>
				<time>2026-03-09T08:58:54Z</time>
			</trkpt>
			<trkpt lat="49.829216" lon="13.578654">
				<ele>442.000000</ele>
				<time>2026-03-09T08:59:02Z</time>
			</trkpt>
			<trkpt lat="49.829285" lon="13.578558">
				<ele>441.000000</ele>
				<time>2026-03-09T08:59:11Z</time>
			</trkpt>
			<trkpt lat="49.829376" lon="13.578524">
				<ele>442.000000</ele>
				<time>2026-03-09T08:59:17Z</time>
			</trkpt>
			<trkpt lat="49.829470" lon="13.578507">
				<ele>443.000000</ele>
				<time>2026-03-09T08:59:23Z</time>
			</trkpt>
			<trkpt lat="49.829647" lon="13.578612">
				<ele>444.000000</ele>
				<time>2026-03-09T09:00:16Z</time>
			</trkpt>
			<trkpt lat="49.829689" lon="13.578487">
				<ele>445.000000</ele>
				<time>2026-03-09T09:00:26Z</time>
			</trkpt>
			<trkpt lat="49.829660" lon="13.578333">
				<ele>447.000000</ele>
				<time>2026-03-09T09:00:34Z</time>
			</trkpt>
			<trkpt lat="49.829602" lon="13.578216">
				<ele>447.000000</ele>
				<time>2026-03-09T09:00:42Z</time>
			</trkpt>
			<trkpt lat="49.829630" lon="13.578070">
				<ele>448.000000</ele>
				<time>2026-03-09T09:00:54Z</time>
			</trkpt>
			<trkpt lat="49.829713" lon="13.578128">
				<ele>447.000000</ele>
				<time>2026-03-09T09:01:01Z</time>
			</trkpt>
			<trkpt lat="49.829769" lon="13.578242">
				<ele>446.000000</ele>
				<time>2026-03-09T09:01:09Z</time>
			</trkpt>
			<trkpt lat="49.829847" lon="13.578341">
				<ele>446.000000</ele>
				<time>2026-03-09T09:01:16Z</time>
			</trkpt>
			<trkpt lat="49.829873" lon="13.578482">
				<ele>445.000000</ele>
				<time>2026-03-09T09:01:24Z</time>
			</trkpt>
			<trkpt lat="49.829881" lon="13.578623">
				<ele>445.000000</ele>
				<time>2026-03-09T09:01:31Z</time>
			</trkpt>
			<trkpt lat="49.829821" lon="13.578727">
				<ele>445.000000</ele>
				<time>2026-03-09T09:01:38Z</time>
			</trkpt>
			<trkpt lat="49.829734" lon="13.578794">
				<ele>444.000000</ele>
				<time>2026-03-09T09:01:44Z</time>
			</trkpt>
			<trkpt lat="49.829689" lon="13.578929">
				<ele>443.000000</ele>
				<time>2026-03-09T09:01:52Z</time>
			</trkpt>
			<trkpt lat="49.829746" lon="13.579052">
				<ele>444.000000</ele>
				<time>2026-03-09T09:02:00Z</time>
			</trkpt>
			<trkpt lat="49.829818" lon="13.579138">
				<ele>443.000000</ele>
				<time>2026-03-09T09:02:11Z</time>
			</trkpt>
			<trkpt lat="49.829893" lon="13.579249">
				<ele>443.000000</ele>
				<time>2026-03-09T09:02:20Z</time>
			</trkpt>
			<trkpt lat="49.829940" lon="13.579376">
				<ele>443.000000</ele>
				<time>2026-03-09T09:02:26Z</time>
			</trkpt>
			<trkpt lat="49.829987" lon="13.579496">
				<ele>442.000000</ele>
				<time>2026-03-09T09:02:34Z</time>
			</trkpt>
			<trkpt lat="49.830043" lon="13.579625">
				<ele>441.000000</ele>
				<time>2026-03-09T09:02:42Z</time>
			</trkpt>
			<trkpt lat="49.830118" lon="13.579702">
				<ele>441.000000</ele>
				<time>2026-03-09T09:02:48Z</time>
			</trkpt>
			<trkpt lat="49.830188" lon="13.579810">
				<ele>440.000000</ele>
				<time>2026-03-09T09:02:56Z</time>
			</trkpt>
			<trkpt lat="49.830236" lon="13.579933">
				<ele>441.000000</ele>
				<time>2026-03-09T09:03:02Z</time>
			</trkpt>
			<trkpt lat="49.830312" lon="13.580027">
				<ele>442.000000</ele>
				<time>2026-03-09T09:03:09Z</time>
			</trkpt>
			<trkpt lat="49.830388" lon="13.580110">
				<ele>442.000000</ele>
				<time>2026-03-09T09:03:15Z</time>
			</trkpt>
			<trkpt lat="49.830467" lon="13.580185">
				<ele>442.000000</ele>
				<time>2026-03-09T09:03:22Z</time>
			</trkpt>
			<trkpt lat="49.830563" lon="13.580240">
				<ele>441.000000</ele>
				<time>2026-03-09T09:03:29Z</time>
			</trkpt>
			<trkpt lat="49.830660" lon="13.580283">
				<ele>441.000000</ele>
				<time>2026-03-09T09:03:37Z</time>
			</trkpt>
			<trkpt lat="49.830750" lon="13.580347">
				<ele>439.000000</ele>
				<time>2026-03-09T09:03:44Z</time>
			</trkpt>
			<trkpt lat="49.830844" lon="13.580384">
				<ele>440.000000</ele>
				<time>2026-03-09T09:03:51Z</time>
			</trkpt>
			<trkpt lat="49.830924" lon="13.580313">
				<ele>441.000000</ele>
				<time>2026-03-09T09:03:59Z</time>
			</trkpt>
			<trkpt lat="49.831010" lon="13.580251">
				<ele>443.000000</ele>
				<time>2026-03-09T09:04:07Z</time>
			</trkpt>
			<trkpt lat="49.831093" lon="13.580189">
				<ele>444.000000</ele>
				<time>2026-03-09T09:04:17Z</time>
			</trkpt>
			<trkpt lat="49.831185" lon="13.580154">
				<ele>445.000000</ele>
				<time>2026-03-09T09:04:29Z</time>
			</trkpt>
			<trkpt lat="49.831277" lon="13.580165">
				<ele>444.000000</ele>
				<time>2026-03-09T09:04:51Z</time>
			</trkpt>
			<trkpt lat="49.831354" lon="13.580091">
				<ele>443.000000</ele>
				<time>2026-03-09T09:05:04Z</time>
			</trkpt>
			<trkpt lat="49.831455" lon="13.580056">
				<ele>443.000000</ele>
				<time>2026-03-09T09:05:16Z</time>
			</trkpt>
			<trkpt lat="49.831554" lon="13.580062">
				<ele>439.000000</ele>
				<time>2026-03-09T09:05:26Z</time>
			</trkpt>
			<trkpt lat="49.831641" lon="13.580026">
				<ele>441.000000</ele>
				<time>2026-03-09T09:05:38Z</time>
			</trkpt>
			<trkpt lat="49.831735" lon="13.579983">
				<ele>439.000000</ele>
				<time>2026-03-09T09:05:52Z</time>
			</trkpt>
			<trkpt lat="49.831820" lon="13.579922">
				<ele>440.000000</ele>
				<time>2026-03-09T09:06:01Z</time>
			</trkpt>
			<trkpt lat="49.831906" lon="13.579870">
				<ele>441.000000</ele>
				<time>2026-03-09T09:06:11Z</time>
			</trkpt>
			<trkpt lat="49.831994" lon="13.579807">
				<ele>443.000000</ele>
				<time>2026-03-09T09:06:21Z</time>
			</trkpt>
			<trkpt lat="49.832085" lon="13.579814">
				<ele>444.000000</ele>
				<time>2026-03-09T09:06:29Z</time>
			</trkpt>
			<trkpt lat="49.832165" lon="13.579905">
				<ele>445.000000</ele>
				<time>2026-03-09T09:06:35Z</time>
			</trkpt>
			<trkpt lat="49.832257" lon="13.579984">
				<ele>446.000000</ele>
				<time>2026-03-09T09:06:43Z</time>
			</trkpt>
			<trkpt lat="49.832323" lon="13.580093">
				<ele>448.000000</ele>
				<time>2026-03-09T09:06:50Z</time>
			</trkpt>
			<trkpt lat="49.832388" lon="13.580199">
				<ele>450.000000</ele>
				<time>2026-03-09T09:06:59Z</time>
			</trkpt>
			<trkpt lat="49.832480" lon="13.580164">
				<ele>453.000000</ele>
				<time>2026-03-09T09:07:22Z</time>
			</trkpt>
			<trkpt lat="49.832529" lon="13.580047">
				<ele>453.000000</ele>
				<time>2026-03-09T09:07:32Z</time>
			</trkpt>
			<trkpt lat="49.832540" lon="13.579891">
				<ele>453.000000</ele>
				<time>2026-03-09T09:07:40Z</time>
			</trkpt>
			<trkpt lat="49.832604" lon="13.579788">
				<ele>453.000000</ele>
				<time>2026-03-09T09:07:48Z</time>
			</trkpt>
			<trkpt lat="49.832704" lon="13.579674">
				<ele>454.000000</ele>
				<time>2026-03-09T09:08:02Z</time>
			</trkpt>
			<trkpt lat="49.832783" lon="13.579745">
				<ele>454.000000</ele>
				<time>2026-03-09T09:08:09Z</time>
			</trkpt>
			<trkpt lat="49.832852" lon="13.579851">
				<ele>454.000000</ele>
				<time>2026-03-09T09:08:16Z</time>
			</trkpt>
			<trkpt lat="49.832924" lon="13.579941">
				<ele>454.000000</ele>
				<time>2026-03-09T09:08:22Z</time>
			</trkpt>
			<trkpt lat="49.832978" lon="13.580062">
				<ele>455.000000</ele>
				<time>2026-03-09T09:08:29Z</time>
			</trkpt>
			<trkpt lat="49.833002" lon="13.580200">
				<ele>456.000000</ele>
				<time>2026-03-09T09:08:36Z</time>
			</trkpt>
			<trkpt lat="49.833025" lon="13.580338">
				<ele>457.000000</ele>
				<time>2026-03-09T09:08:42Z</time>
			</trkpt>
			<trkpt lat="49.833058" lon="13.580500">
				<ele>458.000000</ele>
				<time>2026-03-09T09:08:49Z</time>
			</trkpt>
			<trkpt lat="49.833072" lon="13.580645">
				<ele>458.000000</ele>
				<time>2026-03-09T09:08:55Z</time>
			</trkpt>
			<trkpt lat="49.833109" lon="13.580785">
				<ele>460.000000</ele>
				<time>2026-03-09T09:09:01Z</time>
			</trkpt>
			<trkpt lat="49.833169" lon="13.580895">
				<ele>459.000000</ele>
				<time>2026-03-09T09:09:07Z</time>
			</trkpt>
			<trkpt lat="49.833241" lon="13.581001">
				<ele>460.000000</ele>
				<time>2026-03-09T09:09:14Z</time>
			</trkpt>
			<trkpt lat="49.833312" lon="13.581111">
				<ele>462.000000</ele>
				<time>2026-03-09T09:09:21Z</time>
			</trkpt>
			<trkpt lat="49.833374" lon="13.581239">
				<ele>462.000000</ele>
				<time>2026-03-09T09:09:28Z</time>
			</trkpt>
			<trkpt lat="49.833423" lon="13.581365">
				<ele>463.000000</ele>
				<time>2026-03-09T09:09:35Z</time>
			</trkpt>
			<trkpt lat="49.833466" lon="13.581502">
				<ele>464.000000</ele>
				<time>2026-03-09T09:09:41Z</time>
			</trkpt>
			<trkpt lat="49.833522" lon="13.581624">
				<ele>464.000000</ele>
				<time>2026-03-09T09:09:47Z</time>
			</trkpt>
			<trkpt lat="49.833479" lon="13.581754">
				<ele>464.000000</ele>
				<time>2026-03-09T09:09:56Z</time>
			</trkpt>
			<trkpt lat="49.833389" lon="13.581757">
				<ele>464.000000</ele>
				<time>2026-03-09T09:10:02Z</time>
			</trkpt>
			<trkpt lat="49.833295" lon="13.581808">
				<ele>464.000000</ele>
				<time>2026-03-09T09:10:08Z</time>
			</trkpt>
			<trkpt lat="49.833203" lon="13.581849">
				<ele>464.000000</ele>
				<time>2026-03-09T09:10:14Z</time>
			</trkpt>
			<trkpt lat="49.833111" lon="13.581878">
				<ele>464.000000</ele>
				<time>2026-03-09T09:10:20Z</time>
			</trkpt>
			<trkpt lat="49.833015" lon="13.581938">
				<ele>464.000000</ele>
				<time>2026-03-09T09:10:26Z</time>
			</trkpt>
			<trkpt lat="49.832922" lon="13.581965">
				<ele>464.000000</ele>
				<time>2026-03-09T09:10:32Z</time>
			</trkpt>
			<trkpt lat="49.832848" lon="13.582057">
				<ele>464.000000</ele>
				<time>2026-03-09T09:10:38Z</time>
			</trkpt>
			<trkpt lat="49.832946" lon="13.582061">
				<ele>464.000000</ele>
				<time>2026-03-09T09:10:44Z</time>
			</trkpt>
			<trkpt lat="49.833034" lon="13.582020">
				<ele>464.000000</ele>
				<time>2026-03-09T09:10:50Z</time>
			</trkpt>
			<trkpt lat="49.833125" lon="13.581998">
				<ele>464.000000</ele>
				<time>2026-03-09T09:10:56Z</time>
			</trkpt>
			<trkpt lat="49.833229" lon="13.581970">
				<ele>464.000000</ele>
				<time>2026-03-09T09:11:03Z</time>
			</trkpt>
			<trkpt lat="49.833295" lon="13.582067">
				<ele>464.000000</ele>
				<time>2026-03-09T09:11:09Z</time>
			</trkpt>
			<trkpt lat="49.833330" lon="13.582200">
				<ele>463.000000</ele>
				<time>2026-03-09T09:11:15Z</time>
			</trkpt>
			<trkpt lat="49.833369" lon="13.582330">
				<ele>464.000000</ele>
				<time>2026-03-09T09:11:21Z</time>
			</trkpt>
			<trkpt lat="49.833402" lon="13.582461">
				<ele>465.000000</ele>
				<time>2026-03-09T09:11:27Z</time>
			</trkpt>
			<trkpt lat="49.833357" lon="13.582606">
				<ele>465.000000</ele>
				<time>2026-03-09T09:11:34Z</time>
			</trkpt>
			<trkpt lat="49.833274" lon="13.582701">
				<ele>466.000000</ele>
				<time>2026-03-09T09:11:41Z</time>
			</trkpt>
			<trkpt lat="49.833190" lon="13.582761">
				<ele>466.000000</ele>
				<time>2026-03-09T09:11:47Z</time>
			</trkpt>
			<trkpt lat="49.833103" lon="13.582806">
				<ele>466.000000</ele>
				<time>2026-03-09T09:11:53Z</time>
			</trkpt>
			<trkpt lat="49.833015" lon="13.582858">
				<ele>466.000000</ele>
				<time>2026-03-09T09:11:59Z</time>
			</trkpt>
			<trkpt lat="49.832926" lon="13.582909">
				<ele>466.000000</ele>
				<time>2026-03-09T09:12:05Z</time>
			</trkpt>
			<trkpt lat="49.832834" lon="13.582948">
				<ele>466.000000</ele>
				<time>2026-03-09T09:12:11Z</time>
			</trkpt>
			<trkpt lat="49.832739" lon="13.582976">
				<ele>466.000000</ele>
				<time>2026-03-09T09:12:17Z</time>
			</trkpt>
			<trkpt lat="49.832645" lon="13.583030">
				<ele>468.000000</ele>
				<time>2026-03-09T09:12:24Z</time>
			</trkpt>
		</trkseg>
	</trk>
</gpx>

