<?xml version="1.0" encoding="utf-8"?>
<gpx xmlns="http://www.topografix.com/GPX/1/1" version="1.1" creator="https://mapy.com/">
	<trk>
		<name>Výlet Pozice na mapě</name>
		<trkseg>
			<trkpt lat="49.832663" lon="13.582997">
				<ele>467.000000</ele>
				<time>2026-03-05T17:49:09Z</time>
			</trkpt>
			<trkpt lat="49.832534" lon="13.583056">
				<ele>467.000000</ele>
				<time>2026-03-05T17:49:20Z</time>
			</trkpt>
			<trkpt lat="49.832445" lon="13.583083">
				<ele>467.000000</ele>
				<time>2026-03-05T17:49:26Z</time>
			</trkpt>
			<trkpt lat="49.832353" lon="13.583124">
				<ele>466.000000</ele>
				<time>2026-03-05T17:49:32Z</time>
			</trkpt>
			<trkpt lat="49.832260" lon="13.583150">
				<ele>467.000000</ele>
				<time>2026-03-05T17:49:38Z</time>
			</trkpt>
			<trkpt lat="49.832154" lon="13.583177">
				<ele>466.000000</ele>
				<time>2026-03-05T17:49:45Z</time>
			</trkpt>
			<trkpt lat="49.832069" lon="13.583255">
				<ele>467.000000</ele>
				<time>2026-03-05T17:49:52Z</time>
			</trkpt>
			<trkpt lat="49.832039" lon="13.583386">
				<ele>467.000000</ele>
				<time>2026-03-05T17:49:58Z</time>
			</trkpt>
			<trkpt lat="49.832018" lon="13.583541">
				<ele>467.000000</ele>
				<time>2026-03-05T17:50:06Z</time>
			</trkpt>
			<trkpt lat="49.831987" lon="13.583692">
				<ele>468.000000</ele>
				<time>2026-03-05T17:50:12Z</time>
			</trkpt>
			<trkpt lat="49.831965" lon="13.583853">
				<ele>468.000000</ele>
				<time>2026-03-05T17:50:18Z</time>
			</trkpt>
			<trkpt lat="49.831948" lon="13.583995">
				<ele>468.000000</ele>
				<time>2026-03-05T17:50:24Z</time>
			</trkpt>
			<trkpt lat="49.831865" lon="13.584066">
				<ele>468.000000</ele>
				<time>2026-03-05T17:50:30Z</time>
			</trkpt>
			<trkpt lat="49.831770" lon="13.584082">
				<ele>468.000000</ele>
				<time>2026-03-05T17:50:37Z</time>
			</trkpt>
			<trkpt lat="49.831678" lon="13.584104">
				<ele>469.000000</ele>
				<time>2026-03-05T17:50:42Z</time>
			</trkpt>
			<trkpt lat="49.831574" lon="13.584119">
				<ele>469.000000</ele>
				<time>2026-03-05T17:50:48Z</time>
			</trkpt>
			<trkpt lat="49.831477" lon="13.584096">
				<ele>469.000000</ele>
				<time>2026-03-05T17:50:54Z</time>
			</trkpt>
			<trkpt lat="49.831379" lon="13.584099">
				<ele>469.000000</ele>
				<time>2026-03-05T17:51:00Z</time>
			</trkpt>
			<trkpt lat="49.831279" lon="13.584077">
				<ele>468.000000</ele>
				<time>2026-03-05T17:51:06Z</time>
			</trkpt>
			<trkpt lat="49.831216" lon="13.583962">
				<ele>468.000000</ele>
				<time>2026-03-05T17:51:13Z</time>
			</trkpt>
			<trkpt lat="49.831171" lon="13.583817">
				<ele>468.000000</ele>
				<time>2026-03-05T17:51:20Z</time>
			</trkpt>
			<trkpt lat="49.831131" lon="13.583671">
				<ele>467.000000</ele>
				<time>2026-03-05T17:51:26Z</time>
			</trkpt>
			<trkpt lat="49.831085" lon="13.583523">
				<ele>466.000000</ele>
				<time>2026-03-05T17:51:33Z</time>
			</trkpt>
			<trkpt lat="49.831070" lon="13.583369">
				<ele>466.000000</ele>
				<time>2026-03-05T17:51:39Z</time>
			</trkpt>
			<trkpt lat="49.831124" lon="13.583255">
				<ele>465.000000</ele>
				<time>2026-03-05T17:51:44Z</time>
			</trkpt>
			<trkpt lat="49.831210" lon="13.583172">
				<ele>465.000000</ele>
				<time>2026-03-05T17:51:50Z</time>
			</trkpt>
			<trkpt lat="49.831299" lon="13.583102">
				<ele>465.000000</ele>
				<time>2026-03-05T17:51:56Z</time>
			</trkpt>
			<trkpt lat="49.831391" lon="13.583043">
				<ele>465.000000</ele>
				<time>2026-03-05T17:52:02Z</time>
			</trkpt>
			<trkpt lat="49.831470" lon="13.582961">
				<ele>465.000000</ele>
				<time>2026-03-05T17:52:08Z</time>
			</trkpt>
			<trkpt lat="49.831553" lon="13.582890">
				<ele>465.000000</ele>
				<time>2026-03-05T17:52:14Z</time>
			</trkpt>
			<trkpt lat="49.831641" lon="13.582841">
				<ele>464.000000</ele>
				<time>2026-03-05T17:52:20Z</time>
			</trkpt>
			<trkpt lat="49.831724" lon="13.582780">
				<ele>464.000000</ele>
				<time>2026-03-05T17:52:25Z</time>
			</trkpt>
			<trkpt lat="49.831814" lon="13.582739">
				<ele>463.000000</ele>
				<time>2026-03-05T17:52:30Z</time>
			</trkpt>
			<trkpt lat="49.831906" lon="13.582672">
				<ele>463.000000</ele>
				<time>2026-03-05T17:52:36Z</time>
			</trkpt>
			<trkpt lat="49.832000" lon="13.582633">
				<ele>464.000000</ele>
				<time>2026-03-05T17:52:41Z</time>
			</trkpt>
			<trkpt lat="49.832096" lon="13.582602">
				<ele>465.000000</ele>
				<time>2026-03-05T17:52:46Z</time>
			</trkpt>
			<trkpt lat="49.832183" lon="13.582540">
				<ele>465.000000</ele>
				<time>2026-03-05T17:52:51Z</time>
			</trkpt>
			<trkpt lat="49.832270" lon="13.582449">
				<ele>464.000000</ele>
				<time>2026-03-05T17:52:57Z</time>
			</trkpt>
			<trkpt lat="49.832350" lon="13.582352">
				<ele>464.000000</ele>
				<time>2026-03-05T17:53:03Z</time>
			</trkpt>
			<trkpt lat="49.832431" lon="13.582275">
				<ele>464.000000</ele>
				<time>2026-03-05T17:53:10Z</time>
			</trkpt>
			<trkpt lat="49.832486" lon="13.582151">
				<ele>464.000000</ele>
				<time>2026-03-05T17:53:17Z</time>
			</trkpt>
			<trkpt lat="49.832557" lon="13.582052">
				<ele>463.000000</ele>
				<time>2026-03-05T17:53:25Z</time>
			</trkpt>
			<trkpt lat="49.832651" lon="13.582010">
				<ele>463.000000</ele>
				<time>2026-03-05T17:53:33Z</time>
			</trkpt>
			<trkpt lat="49.832747" lon="13.582028">
				<ele>464.000000</ele>
				<time>2026-03-05T17:53:39Z</time>
			</trkpt>
			<trkpt lat="49.832848" lon="13.582027">
				<ele>464.000000</ele>
				<time>2026-03-05T17:53:44Z</time>
			</trkpt>
			<trkpt lat="49.832957" lon="13.582001">
				<ele>464.000000</ele>
				<time>2026-03-05T17:53:50Z</time>
			</trkpt>
			<trkpt lat="49.833057" lon="13.581981">
				<ele>463.000000</ele>
				<time>2026-03-05T17:53:56Z</time>
			</trkpt>
			<trkpt lat="49.833146" lon="13.581951">
				<ele>464.000000</ele>
				<time>2026-03-05T17:54:02Z</time>
			</trkpt>
			<trkpt lat="49.833231" lon="13.582000">
				<ele>464.000000</ele>
				<time>2026-03-05T17:54:08Z</time>
			</trkpt>
			<trkpt lat="49.833284" lon="13.582138">
				<ele>463.000000</ele>
				<time>2026-03-05T17:54:14Z</time>
			</trkpt>
			<trkpt lat="49.833335" lon="13.582269">
				<ele>463.000000</ele>
				<time>2026-03-05T17:54:20Z</time>
			</trkpt>
			<trkpt lat="49.833368" lon="13.582421">
				<ele>465.000000</ele>
				<time>2026-03-05T17:54:26Z</time>
			</trkpt>
			<trkpt lat="49.833345" lon="13.582563">
				<ele>465.000000</ele>
				<time>2026-03-05T17:54:32Z</time>
			</trkpt>
			<trkpt lat="49.833263" lon="13.582645">
				<ele>465.000000</ele>
				<time>2026-03-05T17:54:38Z</time>
			</trkpt>
			<trkpt lat="49.833174" lon="13.582712">
				<ele>465.000000</ele>
				<time>2026-03-05T17:54:44Z</time>
			</trkpt>
			<trkpt lat="49.833086" lon="13.582779">
				<ele>466.000000</ele>
				<time>2026-03-05T17:54:50Z</time>
			</trkpt>
			<trkpt lat="49.832989" lon="13.582823">
				<ele>466.000000</ele>
				<time>2026-03-05T17:54:57Z</time>
			</trkpt>
			<trkpt lat="49.832897" lon="13.582862">
				<ele>466.000000</ele>
				<time>2026-03-05T17:55:03Z</time>
			</trkpt>
			<trkpt lat="49.832802" lon="13.582924">
				<ele>466.000000</ele>
				<time>2026-03-05T17:55:09Z</time>
			</trkpt>
			<trkpt lat="49.832711" lon="13.582959">
				<ele>466.000000</ele>
				<time>2026-03-05T17:55:15Z</time>
			</trkpt>
		</trkseg>
	</trk>
</gpx>

